ONEWEB-0369             
1 49295U 21090S   26158.70486615  .00000000  00000+0 -32451-4 0  9999
2 49295  87.9161 306.8640 0001745  94.9925 265.1407 13.19724242225161
ONEWEB-0370             
1 49296U 21090T   26158.70281042  .00000004  00000+0 -23091-4 0  9991
2 49296  87.9192 276.3304 0002068 107.2881 252.8478 13.20770109228611
ONEWEB-0371             
1 49297U 21090U   26158.71275502  .00000042  00000+0  73442-4 0  9993
2 49297  87.9168 306.8540 0001766  99.6679 260.4653 13.19724098225205
ONEWEB-0372             
1 49298U 21090V   26158.61681897 -.00000060  00000+0 -17989-3 0  9996
2 49298  87.9191 276.3490 0001875 100.2792 259.8553 13.20770658228572
ONEWEB-0373             
1 49299U 21090W   26158.71797311  .00000054  00000+0  10164-3 0  9996
2 49299  87.9195 276.3297 0002102 100.6960 259.4410 13.20770416229770
ONEWEB-0374             
1 49300U 21090X   26158.75624743  .00000126  00000+0  30429-3 0  9997
2 49300  87.8960 291.5769 0002296  88.0641 272.0752 13.14502568226326
ONEWEB-0375             
1 49301U 21090Y   26158.70619352  .00000045  00000+0  79038-4 0  9993
2 49301  87.9191 276.3232 0002407  91.5073 268.6336 13.20771464229278
ONEWEB-0376             
1 49302U 21090Z   26158.71117921 -.00000015  00000+0 -68777-4 0  9997
2 49302  87.9173 306.8540 0001616  96.4583 263.6734 13.19724804225201
ONEWEB-0377             
1 49303U 21090AA  26158.61711103 -.00000003  00000+0 -40418-4 0  9998
2 49303  87.9190 276.3431 0002145 100.2307 259.9068 13.20772252229256
ONEWEB-0378             
1 49304U 21090AB  26158.71304998  .00000034  00000+0  51912-4 0  9993
2 49304  87.9187 276.3292 0002023  96.3356 263.8008 13.20769483228532
ONEWEB-0379             
1 49305U 21090AC  26158.75148375  .00000183  00000+0  45907-3 0  9994
2 49305  87.8958 291.5889 0001887  95.5363 264.5982 13.14502283226325
ONEWEB-0380             
1 49306U 21090AD  26158.70802856 -.00000058  00000+0 -17797-3 0  9990
2 49306  87.9164 306.8607 0002039  97.8791 262.2573 13.19724579225176
ONEWEB-0381             
1 49307U 21090AE  26158.68936078 -.00000053  00000+0 -16346-3 0  9996
2 49307  87.9194 276.3333 0002130  94.5009 265.6367 13.20772196228570
ONEWEB-0382             
1 49308U 21090AF  26158.75162618  .00000054  00000+0  10065-3 0  9997
2 49308  87.9189 276.3154 0002063  92.5922 267.5447 13.20769914228577
ONEWEB-0383             
1 49309U 21090AG  26158.74512542  .00000286  00000+0  73673-3 0  9993
2 49309  87.8963 291.5813 0001859  94.3269 265.8073 13.14504870226355
ONEWEB-0384             
1 49310U 21090AH  26158.74057267  .00000061  00000+0  11686-3 0  9990
2 49310  87.9191 276.3611 0002132  87.6720 272.4657 13.20812092228584
ONEWEB-0385             
1 49311U 21090AJ  26158.74491822  .00000034  00000+0  52338-4 0  9990
2 49311  87.9190 276.3220 0002040  95.1249 265.0117 13.20771904228550
ONEWEB-0386             
1 49312U 21090AK  26158.76174914  .00000031  00000+0  44313-4 0  9994
2 49312  87.9195 276.3091 0001998  92.6119 267.5243 13.20771007228574
ONEWEB-0387             
1 49313U 21090AL  26158.74660025  .00000086  00000+0  18064-3 0  9999
2 49313  87.9179 276.3357 0002312  99.4672 260.6722 13.20771996228575
ONEWEB-0388             
1 49314U 21090AM  26158.70329053  .00000061  00000+0  12032-3 0  9991
2 49314  87.9164 306.8598 0001926  92.9431 267.1922 13.19724439225161
ONEWEB-0389             
1 50469U 21132A   26158.85856350  .00000059  00000+0  11960-3 0  9998
2 50469  87.9140   7.7244 0002217  84.7393 275.3992 13.17647852216858
ONEWEB-0390             
1 50470U 21132B   26158.63244191  .00000018  00000+0  13132-4 0  9999
2 50470  87.9140   7.7701 0001880  93.8418 266.2928 13.17647965216822
ONEWEB-0391             
1 50471U 21132C   26158.63413089 -.00000019  00000+0 -81254-4 0  9997
2 50471  87.9141   7.7793 0002672  92.4638 267.6799 13.17647293216829
ONEWEB-0392             
1 50472U 21132D   26158.81638791  .00000255  00000+0  62321-3 0  9990
2 50472  87.9152   7.7105 0002661  84.2861 275.8574 13.17648301216883
ONEWEB-0393             
1 50473U 21132E   26158.64004399  .00000013  00000+0 -88944-6 0  9998
2 50473  87.9141   7.7636 0002037  86.9223 273.2141 13.17649383216859
ONEWEB-0394             
1 50474U 21132F   26158.76528832  .00000087  00000+0  18669-3 0  9999
2 50474  87.9169 337.3171 0002019  87.2783 272.8580 13.18684262220359
ONEWEB-0395             
1 50475U 21132G   26158.85884134  .00000101  00000+0  24887-3 0  9996
2 50475  87.8890  22.9244 0001943  90.1083 270.0267 13.11415136214494
ONEWEB-0396             
1 50476U 21132H   26158.53091278  .00000044  00000+0  80119-4 0  9998
2 50476  87.9169 337.3760 0001960  88.5152 271.6204 13.18684002220366
ONEWEB-0397             
1 50477U 21132J   26158.77372241  .00000096  00000+0  20977-3 0  9999
2 50477  87.9168 337.3281 0001948  83.9378 276.1976 13.18684304220371
ONEWEB-0398             
1 50478U 21132K   26158.67402420  .00000216  00000+0  57450-3 0  9992
2 50478  87.8903  22.9508 0001835  95.6509 264.4828 13.11420028214360
ONEWEB-0399             
1 50479U 21132L   26158.66045845 -.00000335  00000+0 -98039-3 0  9998
2 50479  87.8907  22.9648 0002256  78.2066 281.9315 13.11418868214356
