OBJECT_NAME,OBJECT_ID,EPOCH,MEAN_MOTION,ECCENTRICITY,INCLINATION,RA_OF_ASC_NODE,ARG_OF_PERICENTER,MEAN_ANOMALY,EPHEMERIS_TYPE,CLASSIFICATION_TYPE,NORAD_CAT_ID,ELEMENT_SET_NO,REV_AT_EPOCH,BSTAR,MEAN_MOTION_DOT,MEAN_MOTION_DDOT
ONEWEB-0369,2021-090S,2026-06-07T16:55:00.435360,13.19724242,.0001745,87.9161,306.8640,94.9925,265.1407,0,U,49295,999,22516,-.32451E-4,0,0
ONEWEB-0370,2021-090T,2026-06-07T16:52:02.820288,13.20770109,.0002068,87.9192,276.3304,107.2881,252.8478,0,U,49296,999,22861,-.23091E-4,.4E-7,0
ONEWEB-0371,2021-090U,2026-06-07T17:06:22.033728,13.19724098,.0001766,87.9168,306.8540,99.6679,260.4653,0,U,49297,999,22520,.73442E-4,.42E-6,0
ONEWEB-0372,2021-090V,2026-06-07T14:48:13.159008,13.20770658,.0001875,87.9191,276.3490,100.2792,259.8553,0,U,49298,999,22857,-.17989E-3,-.6E-6,0
ONEWEB-0373,2021-090W,2026-06-07T17:13:52.876704,13.20770416,.0002102,87.9195,276.3297,100.6960,259.4410,0,U,49299,999,22977,.10164E-3,.54E-6,0
ONEWEB-0374,2021-090X,2026-06-07T18:08:59.777952,13.14502568,.0002296,87.8960,291.5769,88.0641,272.0752,0,U,49300,999,22632,.30429E-3,.126E-5,0
ONEWEB-0375,2021-090Y,2026-06-07T16:56:55.120128,13.20771464,.0002407,87.9191,276.3232,91.5073,268.6336,0,U,49301,999,22927,.79038E-4,.45E-6,0
ONEWEB-0376,2021-090Z,2026-06-07T17:04:05.883744,13.19724804,.0001616,87.9173,306.8540,96.4583,263.6734,0,U,49302,999,22520,-.68777E-4,-.15E-6,0
ONEWEB-0377,2021-090AA,2026-06-07T14:48:38.392992,13.20772252,.0002145,87.9190,276.3431,100.2307,259.9068,0,U,49303,999,22925,-.40418E-4,-.3E-7,0
ONEWEB-0378,2021-090AB,2026-06-07T17:06:47.518272,13.20769483,.0002023,87.9187,276.3292,96.3356,263.8008,0,U,49304,999,22853,.51912E-4,.34E-6,0
ONEWEB-0379,2021-090AC,2026-06-07T18:02:08.196000,13.14502283,.0001887,87.8958,291.5889,95.5363,264.5982,0,U,49305,999,22632,.45907E-3,.183E-5,0
ONEWEB-0380,2021-090AD,2026-06-07T16:59:33.667584,13.19724579,.0002039,87.9164,306.8607,97.8791,262.2573,0,U,49306,999,22517,-.17797E-3,-.58E-6,0
ONEWEB-0381,2021-090AE,2026-06-07T16:32:40.771392,13.20772196,.000213,87.9194,276.3333,94.5009,265.6367,0,U,49307,999,22857,-.16346E-3,-.53E-6,0
ONEWEB-0382,2021-090AF,2026-06-07T18:02:20.501952,13.20769914,.0002063,87.9189,276.3154,92.5922,267.5447,0,U,49308,999,22857,.10065E-3,.54E-6,0
ONEWEB-0383,2021-090AG,2026-06-07T17:52:58.836288,13.14504870,.0001859,87.8963,291.5813,94.3269,265.8073,0,U,49309,999,22635,.73673E-3,.286E-5,0
ONEWEB-0384,2021-090AH,2026-06-07T17:46:25.478688,13.20812092,.0002132,87.9191,276.3611,87.6720,272.4657,0,U,49310,999,22858,.11686E-3,.61E-6,0
ONEWEB-0385,2021-090AJ,2026-06-07T17:52:40.934208,13.20771904,.000204,87.9190,276.3220,95.1249,265.0117,0,U,49311,999,22855,.52338E-4,.34E-6,0
ONEWEB-0386,2021-090AK,2026-06-07T18:16:55.125696,13.20771007,.0001998,87.9195,276.3091,92.6119,267.5243,0,U,49312,999,22857,.44313E-4,.31E-6,0
ONEWEB-0387,2021-090AL,2026-06-07T17:55:06.261600,13.20771996,.0002312,87.9179,276.3357,99.4672,260.6722,0,U,49313,999,22857,.18064E-3,.86E-6,0
ONEWEB-0388,2021-090AM,2026-06-07T16:52:44.301792,13.19724439,.0001926,87.9164,306.8598,92.9431,267.1922,0,U,49314,999,22516,.12032E-3,.61E-6,0
ONEWEB-0389,2021-132A,2026-06-07T20:36:19.886400,13.17647852,.0002217,87.9140,7.7244,84.7393,275.3992,0,U,50469,999,21685,.1196E-3,.59E-6,0
ONEWEB-0390,2021-132B,2026-06-07T15:10:42.981024,13.17647965,.000188,87.9140,7.7701,93.8418,266.2928,0,U,50470,999,21682,.13132E-4,.18E-6,0
ONEWEB-0391,2021-132C,2026-06-07T15:13:08.908896,13.17647293,.0002672,87.9141,7.7793,92.4638,267.6799,0,U,50471,999,21682,-.81254E-4,-.19E-6,0
ONEWEB-0392,2021-132D,2026-06-07T19:35:35.915424,13.17648301,.0002661,87.9152,7.7105,84.2861,275.8574,0,U,50472,999,21688,.62321E-3,.255E-5,0
ONEWEB-0393,2021-132E,2026-06-07T15:21:39.800736,13.17649383,.0002037,87.9141,7.7636,86.9223,273.2141,0,U,50473,999,21685,-.88944E-6,.13E-6,0
ONEWEB-0394,2021-132F,2026-06-07T18:22:00.910848,13.18684262,.0002019,87.9169,337.3171,87.2783,272.8580,0,U,50474,999,22035,.18669E-3,.87E-6,0
ONEWEB-0395,2021-132G,2026-06-07T20:36:43.891776,13.11415136,.0001943,87.8890,22.9244,90.1083,270.0267,0,U,50475,999,21449,.24887E-3,.101E-5,0
ONEWEB-0396,2021-132H,2026-06-07T12:44:30.864192,13.18684002,.000196,87.9169,337.3760,88.5152,271.6204,0,U,50476,999,22036,.80119E-4,.44E-6,0
ONEWEB-0397,2021-132J,2026-06-07T18:34:09.616224,13.18684304,.0001948,87.9168,337.3281,83.9378,276.1976,0,U,50477,999,22037,.20977E-3,.96E-6,0
ONEWEB-0398,2021-132K,2026-06-07T16:10:35.690880,13.11420028,.0001835,87.8903,22.9508,95.6509,264.4828,0,U,50478,999,21436,.5745E-3,.216E-5,0
ONEWEB-0399,2021-132L,2026-06-07T15:51:03.610080,13.11418868,.0002256,87.8907,22.9648,78.2066,281.9315,0,U,50479,999,21435,-.98039E-3,-.335E-5,0
